0 FENGYUN 1C DEB
1 32095U 99025CQM 13285.25220378  .00000278  00000-0  16982-3 0  3352
2 32095 098.9892 284.9060 0083263 112.5458 248.4701 14.12121075321492
0 FENGYUN 1C DEB
1 32095U 99025CQM 13288.22810486  .00000295  00000-0  17882-3 0  3367
2 32095 098.9892 287.8883 0083810 104.1903 256.8673 14.12123648321913
0 FENGYUN 1C DEB
1 32095U 99025CQM 13291.20399587  .00000316  00000-0  19032-3 0  3377
2 32095 098.9888 290.8709 0083265 095.6249 265.4461 14.12126526322336
0 FENGYUN 1C DEB
1 32095U 99025CQM 13293.75475397  .00000332  00000-0  19826-3 0  3383
2 32095 098.9905 293.4334 0083476 088.6348 272.4436 14.12128844322699
0 FENGYUN 1C DEB
1 32095U 99025CQM 13296.23465215  .00000373  00000-0  22046-3 0  3391
2 32095 098.9901 295.9177 0082906 082.0381 279.0640 14.12132237323040
